{
    "links": {
        "self": "http://www.neowsapp.com/rest/v1/neo/3292019?api_key=iIulBulltgU6a56xZRHN4H3l9WmuAYTsLGpBGhQ2"
    },
    "id": "3292019",
    "neo_reference_id": "3292019",
    "name": "(2005 TE)",
    "designation": "2005 TE",
    "nasa_jpl_url": "http://ssd.jpl.nasa.gov/sbdb.cgi?sstr=3292019",
    "absolute_magnitude_h": 23.9,
    "estimated_diameter": {
        "kilometers": {
            "estimated_diameter_min": 0.04411182,
            "estimated_diameter_max": 0.0986370281
        },
        "meters": {
            "estimated_diameter_min": 44.1118199997,
            "estimated_diameter_max": 98.6370281305
        },
        "miles": {
            "estimated_diameter_min": 0.0274098057,
            "estimated_diameter_max": 0.0612901888
        },
        "feet": {
            "estimated_diameter_min": 144.7238235278,
            "estimated_diameter_max": 323.6123073718
        }
    },
    "is_potentially_hazardous_asteroid": false,
    "close_approach_data": [
        {
            "close_approach_date": "2005-09-17",
            "close_approach_date_full": "2005-Sep-17 02:05",
            "epoch_date_close_approach": 1126922700000,
            "relative_velocity": {
                "kilometers_per_second": "14.840768175",
                "kilometers_per_hour": "53426.7654298762",
                "miles_per_hour": "33197.3143305806"
            },
            "miss_distance": {
                "astronomical": "0.0624639996",
                "lunar": "24.2984958444",
                "kilometers": "9344481.291840852",
                "miles": "5806391.4288016776"
            },
            "orbiting_body": "Earth"
        }
    ],
    "orbital_data": {
        "orbit_id": "7",
        "orbit_determination_date": "2017-04-06 09:10:23",
        "first_observation_date": "2005-10-01",
        "last_observation_date": "2005-10-07",
        "data_arc_in_days": 6,
        "observations_used": 17,
        "orbit_uncertainty": "9",
        "minimum_orbit_intersection": ".0300951",
        "jupiter_tisserand_invariant": "3.897",
        "epoch_osculation": "2453646.5",
        "eccentricity": ".5806428033362416",
        "semi_major_axis": "1.759904853034075",
        "inclination": "6.529544786881011",
        "ascending_node_longitude": "13.08211047124376",
        "orbital_period": "852.7705821889713",
        "perihelion_distance": ".7380287655633134",
        "perihelion_argument": "270.5576925451784",
        "aphelion_distance": "2.781780940504837",
        "perihelion_time": "2453583.665720564013",
        "mean_anomaly": "26.52570464953343",
        "mean_motion": ".4221533991896371",
        "equinox": "J2000",
        "orbit_class": {
            "orbit_class_type": "APO",
            "orbit_class_description": "Near-Earth asteroid orbits which cross the Earth’s orbit similar to that of 1862 Apollo",
            "orbit_class_range": "a (semi-major axis) > 1.0 AU; q (perihelion) < 1.017 AU"
        }
    },
    "is_sentry_object": false
}